COSMOS 2433 (720)       
1 32275U 07052A   24233.50736072 -.00000058  00000+0  00000+0 0  9999
2 32275  65.9102 338.2452 0003871 218.2027 141.8008  2.13104028130919
COSMOS 2432 (719)       
1 32276U 07052B   24233.59684524 -.00000058  00000+0  00000+0 0  9993
2 32276  65.9251 338.3573 0008138 318.5025  56.1869  2.13103078130910
COSMOS 2434 (721)       
1 32393U 07065A   24233.28803819  .00000060  00000+0  00000+0 0  9995
2 32393  64.3217 214.4019 0000320 355.6938  88.3900  2.13101264129583
COSMOS 2436 (723)       
1 32395U 07065C   24234.17757553  .00000060  00000+0  00000+0 0  9999
2 32395  64.3301 214.4369 0016237 353.1465 188.5075  2.13100060129566
COSMOS 2456 (730)       
1 36111U 09070A   24233.21180615  .00000038  00000+0  00000+0 0  9995
2 36111  64.6405  93.7598 0002442 339.1773 200.2726  2.13099069114234
COSMOS 2457 (733)       
1 36112U 09070B   24233.50614587  .00000037  00000+0  00000+0 0  9997
2 36112  64.6251  93.6069 0005224 141.3836  37.4246  2.13101254114248
COSMOS 2460 (732)       
1 36402U 10007C   24233.32960951 -.00000057  00000+0  00000+0 0  9993
2 36402  65.7652 336.9058 0001501 176.3629 219.7198  2.13106176112540
COSMOS 2476 (744)       
1 37867U 11064A   24233.36445848  .00000038  00000+0  00000+0 0  9998
2 37867  64.9126  95.4133 0021590 233.2112 335.7026  2.13101588 99572
COSMOS 2477 (745)       
1 37868U 11064B   24232.63004752  .00000041  00000+0  00000+0 0  9997
2 37868  64.9186  95.5115 0018796 233.9752 309.9457  2.13103109 99540
COSMOS 2475 (743)       
1 37869U 11064C   24233.62936326  .00000037  00000+0  00000+0 0  9994
2 37869  64.9265  95.4929 0023368 250.6050 298.0878  2.13101913 99589
COSMOS 2485 (747)       
1 39155U 13019A   24233.03411963  .00000040  00000+0  00000+0 0  9990
2 39155  65.0693  96.0223 0022014 229.2183 130.6888  2.13101845 88085
COSMOS 2492 (754)       
1 39620U 14012A   24233.45857985 -.00000057  00000+0  00000+0 0  9994
2 39620  65.6464 336.4693 0011199 315.3410  44.6025  2.13103053 81058
COSMOS 2500 (755)       
1 40001U 14032A   24233.16784312 -.00000056  00000+0  00000+0 0  9991
2 40001  65.5836 336.2791 0008179 197.7281 162.2766  2.13105842 79261
COSMOS 2501 (702K)      
1 40315U 14075A   24230.13685297  .00000081  00000+0  00000+0 0  9999
2 40315  63.6228 213.5565 0020928 211.3795 148.5004  2.13101415 75594
COSMOS 2514 (751)       
1 41330U 16008A   24232.46585480 -.00000056  00000+0  00000+0 0  9999
2 41330  65.3782 335.7963 0011977 206.2718 153.6996  2.13102416 66417
COSMOS 2522 (752)       
1 42939U 17055A   24233.24439778  .00000060  00000+0  00000+0 0  9997
2 42939  64.0839 214.5761 0010134 241.7542 118.1326  2.13101868 53784
COSMOS 2527 (756)       
1 43508U 18053A   24233.20384747  .00000040  00000+0  00000+0 0  9998
2 43508  65.2292  96.1819 0007110 221.3433 138.7014  2.13102297 48080
COSMOS 2529 (757)       
1 43687U 18086A   24233.30245750  .00000061  00000+0  00000+0 0  9996
2 43687  64.2996 215.1040 0011569 259.8381 100.0211  2.13101946 45097
COSMOS 2534 (758)       
1 44299U 19030A   24233.35222672  .00000061  00000+0  00000+0 0  9999
2 44299  64.3727 215.0617 0013412 279.0464 253.2407  2.13101937 40738
COSMOS 2544 (759)       
1 44850U 19088A   24234.08645481  .00000035  00000+0  00000+0 0  9994
2 44850  65.2163  95.9881 0011651 252.3483 107.6210  2.13102056 36520
COSMOS 2545 (760)       
1 45358U 20018A   24232.40620068 -.00000057  00000+0  00000+0 0  9996
2 45358  64.7178 335.7576 0010071 235.8037 124.1330  2.13102433 34452
COSMOS 2547 (705K)      
1 46805U 20075A   24232.12376726  .00000067  00000+0  00000+0 0  9995
2 46805  64.6017 214.7634 0008841 241.9494 117.9566  2.13102842 29694
COSMOS 2557 (706K)      
1 52984U 22075A   24233.22780224 -.00000059  00000+0  00000+0 0  9998
2 52984  64.6457 337.8532 0011812 274.0949  85.8012  2.13102191 16518
COSMOS 2559 (707K)      
1 54031U 22130A   24233.17089942 -.00000059  00000+0  00000+0 0  9998
2 54031  64.6177 337.9705 0007332 216.9980 142.9822  2.13101462 14496
COSMOS 2564 (761)       
1 54377U 22161A   24233.36149543  .00000061  00000+0  00000+0 0  9992
2 54377  64.7431 214.8382 0011342 225.2961 134.6011  2.13102042 13442
COSMOS 2569 (703K)      
1 57517U 23114A   24232.90926710  .00000040  00000+0  00000+0 0  9995
2 57517  64.9436  95.1538 0009298 296.9799  63.0238  2.13103800  8063
